NORAD_CAT_ID,OBJECT_NAME,OBJECT_TYPE,EPOCH,MEAN_MOTION,ECCENTRICITY,INCLINATION,RA_OF_ASC_NODE,ARG_OF_PERICENTER,MEAN_ANOMALY,BSTAR,MEAN_MOTION_DOT,MEAN_MOTION_DDOT,TLE_LINE0,TLE_LINE1,TLE_LINE2,SEMIMAJOR_AXIS,PERIOD,APOGEE,PERIGEE,DECAYED
51131.0,STARLINK-3388,PAYLOAD,2023-08-14 02:48:11,15.08834361,0.0001274,53.2168,192.5394,83.7764,276.3373,3.6678e-05,2.96e-06,0.0,0 STARLINK-3388,1 51131U 22005AD  23226.11679432  .00000296  00000-0  36678-4 0  9999,2 51131  53.2168 192.5394 0001274  83.7764 276.3373 15.08834361 88152,6917.898,95.438,540.644,538.881,0.0
51131.0,STARLINK-3388,PAYLOAD,2023-08-15 01:03:34,15.0884125,0.0001299,53.2169,188.3774,87.9614,272.1527,1.5216e-05,-4.6e-07,0.0,0 STARLINK-3388,1 51131U 22005AD  23227.04415092 -.00000046  00000-0  15216-4 0  9991,2 51131  53.2169 188.3774 0001299  87.9614 272.1527 15.08841250 88290,6917.877,95.437,540.64,538.843,0.0
51131.0,STARLINK-3388,PAYLOAD,2023-08-16 02:29:44,15.08841878,0.0001362,53.2172,183.6203,92.6172,267.4976,9.1822e-05,1.174e-05,0.0,0 STARLINK-3388,1 51131U 22005AD  23228.10398896  .00001174  00000-0  91822-4 0  9990,2 51131  53.2172 183.6203 0001362  92.6172 267.4976 15.08841878 88451,6917.875,95.437,540.682,538.797,0.0
51131.0,STARLINK-3388,PAYLOAD,2023-08-17 02:20:32,15.08831784,0.0001464,53.2172,179.1605,94.4021,265.7139,-6.6686e-07,-2.99e-06,0.0,0 STARLINK-3388,1 51131U 22005AD  23229.09760077 -.00000299  00000-0 -66686-6 0  9994,2 51131  53.2172 179.1605 0001464  94.4021 265.7139 15.08831784 88607,6917.906,95.438,540.783,538.758,0.0
51131.0,STARLINK-3388,PAYLOAD,2023-08-17 07:06:41,15.08837173,0.0001373,53.2168,178.2668,91.9602,268.1547,3.2486e-05,2.29e-06,0.0,0 STARLINK-3388,1 51131U 22005AD  23229.29631697  .00000229  00000-0  32486-4 0  9991,2 51131  53.2168 178.2668 0001373  91.9602 268.1547 15.08837173 88638,6917.889,95.438,540.704,538.804,0.0
51131.0,STARLINK-3388,PAYLOAD,2023-08-18 03:46:41,15.08847139,0.0001339,53.2176,174.401,92.0431,268.0715,9.2187e-05,1.18e-05,0.0,0 STARLINK-3388,1 51131U 22005AD  23230.15743053  .00001180  00000-0  92187-4 0  9999,2 51131  53.2176 174.4010 0001339  92.0431 268.0715 15.08847139 88763,6917.859,95.437,540.65,538.797,0.0
51131.0,STARLINK-3388,PAYLOAD,2023-08-19 03:37:29,15.08836386,0.000146,53.2177,169.941,84.4743,275.6416,0.00010004,1.304e-05,0.0,0 STARLINK-3388,1 51131U 22005AD  23231.15103907  .00001304  00000-0  10004-3 0  9993,2 51131  53.2177 169.9410 0001460  84.4743 275.6416 15.08836386 88914,6917.891,95.438,540.766,538.746,0.0
51131.0,STARLINK-3388,PAYLOAD,2023-08-20 19:22:08,15.08837077,0.0001411,53.2174,162.5065,88.8856,271.2298,0.00010978,1.46e-05,0.0,0 STARLINK-3388,1 51131U 22005AD  23232.80703985  .00001460  00000-0  10978-3 0  9991,2 51131  53.2174 162.5065 0001411  88.8856 271.2298 15.08837077 89161,6917.889,95.438,540.73,538.778,0.0
51131.0,STARLINK-3388,PAYLOAD,2023-08-21 04:54:26,15.08850627,0.0001406,53.2175,160.7223,92.2039,267.9114,0.00012007,1.624e-05,0.0,0 STARLINK-3388,1 51131U 22005AD  23233.20447146  .00001624  00000-0  12007-3 0  9997,2 51131  53.2175 160.7223 0001406  92.2039 267.9114 15.08850627 89226,6917.848,95.437,540.686,538.74,0.0
51131.0,STARLINK-3388,PAYLOAD,2023-08-22 01:34:28,15.08833371,0.0001193,53.2175,156.8568,90.2387,269.8741,1.3004e-05,-8.1e-07,0.0,0 STARLINK-3388,1 51131U 22005AD  23234.06560664 -.00000081  00000-0  13004-4 0  9999,2 51131  53.2175 156.8568 0001193  90.2387 269.8741 15.08833371 89359,6917.901,95.438,540.591,538.94,0.0
51131.0,STARLINK-3388,PAYLOAD,2023-08-23 01:25:14,15.08846009,0.0001368,53.2187,152.3976,99.1011,261.0136,5.5993e-05,6.03e-06,0.0,0 STARLINK-3388,1 51131U 22005AD  23235.05920008  .00000603  00000-0  55993-4 0  9993,2 51131  53.2187 152.3976 0001368  99.1011 261.0136 15.08846009 89503,6917.862,95.437,540.673,538.781,0.0
51131.0,STARLINK-3388,PAYLOAD,2023-08-24 02:51:25,15.08837468,0.0001213,53.2174,147.6347,95.8363,264.2768,0.00012441,1.693e-05,0.0,0 STARLINK-3388,1 51131U 22005AD  23236.11904475  .00001693  00000-0  12441-3 0  9991,2 51131  53.2174 147.6347 0001213  95.8363 264.2768 15.08837468 88548,6917.888,95.438,540.592,538.914,0.0
51131.0,STARLINK-3388,PAYLOAD,2023-08-25 04:17:35,15.08850059,0.0001241,53.2185,142.8805,99.232,260.8813,5.45e-05,5.8e-06,0.0,0 STARLINK-3388,1 51131U 22005AD  23237.17888041  .00000580  00000-0  54500-4 0  9995,2 51131  53.2185 142.8805 0001241  99.2320 260.8813 15.08850059 89824,6917.85,95.437,540.573,538.856,0.0
51131.0,STARLINK-3388,PAYLOAD,2023-08-26 00:57:36,15.08845199,0.0001324,53.2184,139.0173,88.8784,271.2359,9.9426e-05,1.295e-05,0.0,0 STARLINK-3388,1 51131U 22005AD  23238.04000381  .00001295  00000-0  99426-4 0  9995,2 51131  53.2184 139.0173 0001324  88.8784 271.2359 15.08845199 89953,6917.864,95.437,540.645,538.814,0.0
51131.0,STARLINK-3388,PAYLOAD,2023-08-26 02:32:59,15.08847763,0.0001335,53.2184,138.7189,89.173,270.9415,0.00012003,1.623e-05,0.0,0 STARLINK-3388,1 51131U 22005AD  23238.10624152  .00001623  00000-0  12003-3 0  9990,2 51131  53.2184 138.7189 0001335  89.1730 270.9415 15.08847763 88848,6917.857,95.437,540.645,538.798,0.0
51131.0,STARLINK-3388,PAYLOAD,2023-08-26 16:51:28,15.08839458,0.0001129,53.2196,136.0389,97.5272,262.5848,-1.0954e-05,-4.62e-06,0.0,0 STARLINK-3388,1 51131U 22005AD  23238.70240999 -.00000462  00000-0 -10954-4 0  9995,2 51131  53.2196 136.0389 0001129  97.5272 262.5848 15.08839458 90054,6917.882,95.438,540.528,538.966,0.0
51131.0,STARLINK-3388,PAYLOAD,2023-08-26 21:37:37,15.08843234,0.0001308,53.2178,135.1493,88.7988,271.3154,-1.2298e-05,-4.84e-06,0.0,0 STARLINK-3388,1 51131U 22005AD  23238.90112721 -.00000484  00000-0 -12298-4 0  9995,2 51131  53.2178 135.1493 0001308  88.7988 271.3154 15.08843234 88967,6917.871,95.437,540.64,538.831,0.0
51131.0,STARLINK-3388,PAYLOAD,2023-08-27 02:23:46,15.08846721,0.0001137,53.2173,134.2562,92.6786,267.4336,1.5967e-05,-3.4e-07,0.0,0 STARLINK-3388,1 51131U 22005AD  23239.09984300 -.00000034  00000-0  15967-4 0  9992,2 51131  53.2173 134.2562 0001137  92.6786 267.4336 15.08846721 90111,6917.86,95.437,540.511,538.938,0.0
51131.0,STARLINK-3388,PAYLOAD,2023-08-27 21:28:24,15.08843122,0.000125,53.2175,130.6883,84.3042,275.8092,-6.2274e-06,-3.87e-06,0.0,0 STARLINK-3388,1 51131U 22005AD  23239.89472697 -.00000387  00000-0 -62274-5 0  9997,2 51131  53.2175 130.6883 0001250  84.3042 275.8092 15.08843122 89110,6917.871,95.437,540.601,538.871,0.0
51131.0,STARLINK-3388,PAYLOAD,2023-08-28 10:11:29,15.08845626,0.0001187,53.2169,128.3093,91.1614,268.9514,2.2021e-05,6.3e-07,0.0,0 STARLINK-3388,1 51131U 22005AD  23240.42464287  .00000063  00000-0  22021-4 0  9998,2 51131  53.2169 128.3093 0001187  91.1614 268.9514 15.08845626 90317,6917.863,95.437,540.549,538.907,0.0
51131.0,STARLINK-3388,PAYLOAD,2023-08-28 21:19:11,15.08835906,0.0001317,53.2167,126.2259,108.3298,251.7838,-3.2862e-06,-3.4e-06,0.0,0 STARLINK-3388,1 51131U 22005AD  23240.88833011 -.00000340  00000-0 -32862-5 0  9998,2 51131  53.2167 126.2259 0001317 108.3298 251.7838 15.08835906 89261,6917.893,95.438,540.669,538.847,0.0
51131.0,STARLINK-3388,PAYLOAD,2023-08-29 02:05:20,15.08839173,0.0001457,53.2175,125.3336,107.4159,252.6992,1.3077e-05,-8e-07,0.0,0 STARLINK-3388,1 51131U 22005AD  23241.08704807 -.00000080  00000-0  13077-4 0  9997,2 51131  53.2175 125.3336 0001457 107.4159 252.6992 15.08839173 90417,6917.883,95.438,540.756,538.74,0.0
51131.0,STARLINK-3388,PAYLOAD,2023-08-29 19:34:35,15.08836059,0.0001579,53.218,122.0623,101.7414,258.3755,3.0472e-05,1.97e-06,0.0,0 STARLINK-3388,1 51131U 22005AD  23241.81569159  .00000197  00000-0  30472-4 0  9993,2 51131  53.2180 122.0623 0001579 101.7414 258.3755 15.08836059 89409,6917.892,95.438,540.85,538.665,0.0
51131.0,STARLINK-3388,PAYLOAD,2023-08-30 01:56:08,15.088375,0.0001413,53.2176,120.8735,112.0827,248.0315,4.0326e-05,3.54e-06,0.0,0 STARLINK-3388,1 51131U 22005AD  23242.08065029  .00000354  00000-0  40326-4 0  9994,2 51131  53.2176 120.8735 0001413 112.0827 248.0315 15.08837500 89448,6917.888,95.438,540.731,538.776,0.0
51131.0,STARLINK-3388,PAYLOAD,2023-08-31 01:46:55,15.0883387,0.0001505,53.2176,116.4147,91.5253,268.5911,0.00019948,2.888e-05,0.0,0 STARLINK-3388,1 51131U 22005AD  23243.07425007  .00002888  00000-0  19948-3 0  9999,2 51131  53.2176 116.4147 0001505  91.5253 268.5911 15.08833870 90719,6917.899,95.438,540.805,538.723,0.0
51131.0,STARLINK-3388,PAYLOAD,2023-09-01 07:59:15,15.08838729,0.000146,53.2191,110.7642,84.0079,276.108,2.2759e-05,7.4e-07,0.0,0 STARLINK-3388,1 51131U 22005AD  23244.33281492  .00000074  00000-0  22759-4 0  9997,2 51131  53.2191 110.7642 0001460  84.0079 276.1080 15.08838729 90907,6917.884,95.438,540.759,538.739,0.0
51131.0,STARLINK-3388,PAYLOAD,2023-09-01 23:53:05,15.08855569,9.81e-05,53.2165,107.7909,86.562,273.5485,-5.0198e-05,-1.087e-05,0.0,0 STARLINK-3388,1 51131U 22005AD  23244.99520541 -.00001087  00000-0 -50198-4 0  9995,2 51131  53.2165 107.7909 0000981  86.5620 273.5485 15.08855569 91009,6917.833,95.437,540.376,539.019,0.0
51131.0,STARLINK-3388,PAYLOAD,2023-09-02 07:50:01,15.08845283,0.0001144,53.2176,106.3048,81.8695,278.2427,3.7804e-05,3.14e-06,0.0,0 STARLINK-3388,1 51131U 22005AD  23245.32640865  .00000314  00000-0  37804-4 0  9994,2 51131  53.2176 106.3048 0001144  81.8695 278.2427 15.08845283 91057,6917.864,95.437,540.521,538.938,0.0
51131.0,STARLINK-3388,PAYLOAD,2023-09-02 15:46:58,15.08830069,0.000116,53.2161,104.8173,76.578,283.5341,-1.4433e-05,-5.17e-06,0.0,0 STARLINK-3388,1 51131U 22005AD  23245.65762165 -.00000517  00000-0 -14433-4 0  9998,2 51131  53.2161 104.8173 0001160  76.5780 283.5341 15.08830069 91103,6917.911,95.438,540.578,538.973,0.0
51131.0,STARLINK-3388,PAYLOAD,2023-09-02 18:57:44,15.08895013,0.000181,53.2195,104.2246,63.9237,296.1942,-0.00077626,-0.0001264,0.0,0 STARLINK-3388,1 51131U 22005AD  23245.79009927 -.00012640  00000-0 -77626-3 0  9995,2 51131  53.2195 104.2246 0001810  63.9237 296.1942 15.08895013 90009,6917.712,95.434,540.829,538.325,0.0
